[{"OBJECT_NAME":"HAWK-B","OBJECT_ID":"2018-099AN","EPOCH":"2026-03-09T17:08:08.176128","MEAN_MOTION":15.21533472,"ECCENTRICITY":0.00313564,"INCLINATION":97.4099,"RA_OF_ASC_NODE":121.8943,"ARG_OF_PERICENTER":293.4422,"MEAN_ANOMALY":66.3518,"EPHEMERIS_TYPE":0,"CLASSIFICATION_TYPE":"U","NORAD_CAT_ID":43794,"ELEMENT_SET_NO":999,"REV_AT_EPOCH":39790,"BSTAR":0.00033189141,"MEAN_MOTION_DOT":7.505e-5,"MEAN_MOTION_DDOT":0},{"OBJECT_NAME":"STARLINK-36511","OBJECT_ID":"2026-008G","EPOCH":"2026-03-09T09:31:29.795232","MEAN_MOTION":15.27593687,"ECCENTRICITY":0.00031759,"INCLINATION":43.0004,"RA_OF_ASC_NODE":207.2129,"ARG_OF_PERICENTER":282.3495,"MEAN_ANOMALY":77.7001,"EPHEMERIS_TYPE":0,"CLASSIFICATION_TYPE":"U","NORAD_CAT_ID":67451,"ELEMENT_SET_NO":999,"REV_AT_EPOCH":952,"BSTAR":0.0010297545,"MEAN_MOTION_DOT":0.00028197,"MEAN_MOTION_DDOT":0}]
