HAWK-B                  
1 43794U 18099AN  26068.71398351  .00007505  00000+0  33189-3 0  9996
2 43794  97.4099 121.8943 0031356 293.4422  66.3518 15.21533472397909
STARLINK-36511          
1 67451U 26008G   26068.39687263  .00028197  00000+0  10298-2 0  9993
2 67451  43.0004 207.2129 0003175 282.3495  77.7001 15.27593687  9529
